start=new Date('2022-12-19T00:00:00.000Z').valueOf();
sats=[{"MEAN_MOTION_DDOT":"0.0000000000000","CLASSIFICATION_TYPE":"U","ARG_OF_PERICENTER":"28.0434","TIME_SYSTEM":"UTC","OBJECT_ID":"2021-115E","RA_OF_ASC_NODE":"42.0281","TLE_LINE2":"2 49728  53.2171  42.0281 0002616  28.0434 332.0699 15.08827898 57734","COUNTRY_CODE":"US","CENTER_NAME":"EARTH","ELEMENT_SET_NO":"999","PERIAPSIS":"537.973","OBJECT_NAME":"STARLINK-3240","GP_ID":"220870580","DECAY_DATE":null,"REV_AT_EPOCH":"5773","MEAN_ELEMENT_THEORY":"SGP4","LAUNCH_DATE":"2021-12-02","ECCENTRICITY":"0.00026160","NORAD_CAT_ID":"49728","TLE_LINE1":"1 49728U 21115E   22352.87884894 -.00000995  00000-0 -44435-4 0  9999","REF_FRAME":"TEME","MEAN_MOTION":"15.08827898","APOAPSIS":"541.592","INCLINATION":"53.2171","MEAN_ANOMALY":"332.0699","EPOCH":"2022-12-18T21:05:32.548416","OBJECT_TYPE":"PAYLOAD","PERIOD":"95.438","MEAN_MOTION_DOT":"-0.00000995","SEMIMAJOR_AXIS":"6917.917","FILE":"3709623","RCS_SIZE":"LARGE","SITE":"AFETR","BSTAR":"-0.00004443500000","EPHEMERIS_TYPE":"0"},{"REV_AT_EPOCH":"5773","LAUNCH_DATE":"2021-12-02","ECCENTRICITY":"0.00023490","NORAD_CAT_ID":"49729","MEAN_ELEMENT_THEORY":"SGP4","REF_FRAME":"TEME","TLE_LINE1":"1 49729U 21115F   22352.88252680  .00000104  00000-0  24648-4 0  9997","INCLINATION":"53.2172","MEAN_MOTION":"15.08829964","APOAPSIS":"541.401","EPOCH":"2022-12-18T21:10:50.315520","OBJECT_TYPE":"PAYLOAD","MEAN_ANOMALY":"322.7256","PERIOD":"95.438","SITE":"AFETR","MEAN_MOTION_DOT":"0.00000104","FILE":"3709623","RCS_SIZE":"LARGE","SEMIMAJOR_AXIS":"6917.911","EPHEMERIS_TYPE":"0","BSTAR":"0.00002464800000","ARG_OF_PERICENTER":"37.3899","CLASSIFICATION_TYPE":"U","MEAN_MOTION_DDOT":"0.0000000000000","OBJECT_ID":"2021-115F","TIME_SYSTEM":"UTC","RA_OF_ASC_NODE":"42.0231","CENTER_NAME":"EARTH","PERIAPSIS":"538.151","ELEMENT_SET_NO":"999","TLE_LINE2":"2 49729  53.2172  42.0231 0002349  37.3899 322.7256 15.08829964 57733","COUNTRY_CODE":"US","GP_ID":"220869331","OBJECT_NAME":"STARLINK-3251","DECAY_DATE":null},{"TLE_LINE2":"2 49730  53.2194  43.1630 0002291  30.7807 329.3320 15.08838346 57690","COUNTRY_CODE":"US","CENTER_NAME":"EARTH","ELEMENT_SET_NO":"999","PERIAPSIS":"538.166","RA_OF_ASC_NODE":"43.1630","TIME_SYSTEM":"UTC","OBJECT_ID":"2021-115G","MEAN_MOTION_DDOT":"0.0000000000000","CLASSIFICATION_TYPE":"U","ARG_OF_PERICENTER":"30.7807","DECAY_DATE":null,"GP_ID":"220870081","OBJECT_NAME":"STARLINK-3249","MEAN_MOTION":"15.08838346","APOAPSIS":"541.335","INCLINATION":"53.2194","TLE_LINE1":"1 49730U 21115G   22352.62492270 -.00000319  00000-0 -19030-5 0  9992","REF_FRAME":"TEME","MEAN_ELEMENT_THEORY":"SGP4","ECCENTRICITY":"0.00022910","LAUNCH_DATE":"2021-12-02","NORAD_CAT_ID":"49730","REV_AT_EPOCH":"5769","BSTAR":"-0.00000190300000","EPHEMERIS_TYPE":"0","MEAN_MOTION_DOT":"-0.00000319","FILE":"3709623","RCS_SIZE":"LARGE","SEMIMAJOR_AXIS":"6917.885","SITE":"AFETR","PERIOD":"95.438","MEAN_ANOMALY":"329.3320","OBJECT_TYPE":"PAYLOAD","EPOCH":"2022-12-18T14:59:53.321280"},{"OBJECT_ID":"2021-115H","TIME_SYSTEM":"UTC","ARG_OF_PERICENTER":"30.8122","MEAN_MOTION_DDOT":"0.0000000000000","CLASSIFICATION_TYPE":"U","PERIAPSIS":"537.909","ELEMENT_SET_NO":"999","CENTER_NAME":"EARTH","COUNTRY_CODE":"US","TLE_LINE2":"2 49731  53.2190  43.4804 0002621  30.8122 329.3023 15.08847581 57681","RA_OF_ASC_NODE":"43.4804","DECAY_DATE":null,"OBJECT_NAME":"STARLINK-3228","GP_ID":"220828777","NORAD_CAT_ID":"49731","LAUNCH_DATE":"2021-12-02","ECCENTRICITY":"0.00026210","MEAN_ELEMENT_THEORY":"SGP4","REV_AT_EPOCH":"5768","INCLINATION":"53.2190","APOAPSIS":"541.535","MEAN_MOTION":"15.08847581","REF_FRAME":"TEME","TLE_LINE1":"1 49731U 21115H   22352.55498800 -.00000697  00000-0 -25666-4 0  9990","PERIOD":"95.437","OBJECT_TYPE":"PAYLOAD","EPOCH":"2022-12-18T13:19:10.963200","MEAN_ANOMALY":"329.3023","EPHEMERIS_TYPE":"0","BSTAR":"-0.00002566600000","SITE":"AFETR","FILE":"3708942","SEMIMAJOR_AXIS":"6917.857","RCS_SIZE":"LARGE","MEAN_MOTION_DOT":"-0.00000697"},{"INCLINATION":"53.2178","MEAN_MOTION":"15.08839825","APOAPSIS":"541.402","REF_FRAME":"TEME","TLE_LINE1":"1 49732U 21115J   22352.83467255  .00001091  00000-0  86640-4 0  9998","LAUNCH_DATE":"2021-12-02","ECCENTRICITY":"0.00023940","NORAD_CAT_ID":"49732","MEAN_ELEMENT_THEORY":"SGP4","REV_AT_EPOCH":"5772","BSTAR":"0.00008664000000","EPHEMERIS_TYPE":"0","SITE":"AFETR","MEAN_MOTION_DOT":"0.00001091","SEMIMAJOR_AXIS":"6917.881","FILE":"3709623","RCS_SIZE":"LARGE","PERIOD":"95.438","EPOCH":"2022-12-18T20:01:55.708320","OBJECT_TYPE":"PAYLOAD","MEAN_ANOMALY":"328.7113","CENTER_NAME":"EARTH","PERIAPSIS":"538.090","ELEMENT_SET_NO":"999","TLE_LINE2":"2 49732  53.2178  42.2269 0002394  31.4021 328.7113 15.08839825 57722","COUNTRY_CODE":"US","RA_OF_ASC_NODE":"42.2269","OBJECT_ID":"2021-115J","TIME_SYSTEM":"UTC","ARG_OF_PERICENTER":"31.4021","MEAN_MOTION_DDOT":"0.0000000000000","CLASSIFICATION_TYPE":"U","DECAY_DATE":null,"OBJECT_NAME":"STARLINK-3246","GP_ID":"220871079"},{"REV_AT_EPOCH":"5769","ECCENTRICITY":"0.00024350","LAUNCH_DATE":"2021-12-02","NORAD_CAT_ID":"49733","MEAN_ELEMENT_THEORY":"SGP4","REF_FRAME":"TEME","TLE_LINE1":"1 49733U 21115K   22352.62861280 -.00001313  00000-0 -64424-4 0  9997","INCLINATION":"53.2181","MEAN_MOTION":"15.08825745","APOAPSIS":"541.473","EPOCH":"2022-12-18T15:05:12.145920","OBJECT_TYPE":"PAYLOAD","MEAN_ANOMALY":"325.5392","PERIOD":"95.438","SITE":"AFETR","MEAN_MOTION_DOT":"-0.00001313","RCS_SIZE":"LARGE","FILE":"3709623","SEMIMAJOR_AXIS":"6917.924","EPHEMERIS_TYPE":"0","BSTAR":"-0.00006442400000","ARG_OF_PERICENTER":"34.5758","MEAN_MOTION_DDOT":"0.0000000000000","CLASSIFICATION_TYPE":"U","OBJECT_ID":"2021-115K","TIME_SYSTEM":"UTC","RA_OF_ASC_NODE":"43.1522","CENTER_NAME":"EARTH","PERIAPSIS":"538.104","ELEMENT_SET_NO":"999","TLE_LINE2":"2 49733  53.2181  43.1522 0002435  34.5758 325.5392 15.08825745 57692","COUNTRY_CODE":"US","OBJECT_NAME":"STARLINK-3252","GP_ID":"220869831","DECAY_DATE":null},{"REV_AT_EPOCH":"5787","MEAN_ELEMENT_THEORY":"SGP4","NORAD_CAT_ID":"49734","LAUNCH_DATE":"2021-12-02","ECCENTRICITY":"0.00026290","TLE_LINE1":"1 49734U 21115L   22352.84664504  .00003263  00000-0  22302-3 0  9994","REF_FRAME":"TEME","APOAPSIS":"541.561","MEAN_MOTION":"15.08841077","INCLINATION":"53.2185","MEAN_ANOMALY":"326.2289","OBJECT_TYPE":"PAYLOAD","EPOCH":"2022-12-18T20:19:10.131456","PERIOD":"95.437","FILE":"3709623","RCS_SIZE":"LARGE","SEMIMAJOR_AXIS":"6917.877","MEAN_MOTION_DOT":"0.00003263","SITE":"AFETR","EPHEMERIS_TYPE":"0","BSTAR":"0.00022302000000","MEAN_MOTION_DDOT":"0.0000000000000","CLASSIFICATION_TYPE":"U","ARG_OF_PERICENTER":"33.8871","TIME_SYSTEM":"UTC","OBJECT_ID":"2021-115L","RA_OF_ASC_NODE":"32.1923","COUNTRY_CODE":"US","TLE_LINE2":"2 49734  53.2185  32.1923 0002629  33.8871 326.2289 15.08841077 57872","ELEMENT_SET_NO":"999","PERIAPSIS":"537.923","CENTER_NAME":"EARTH","GP_ID":"220869582","OBJECT_NAME":"STARLINK-3238","DECAY_DATE":null},{"DECAY_DATE":null,"OBJECT_NAME":"STARLINK-3113","GP_ID":"220870833","OBJECT_ID":"2021-115M","TIME_SYSTEM":"UTC","ARG_OF_PERICENTER":"36.8255","MEAN_MOTION_DDOT":"0.0000000000000","CLASSIFICATION_TYPE":"U","PERIAPSIS":"538.171","ELEMENT_SET_NO":"999","CENTER_NAME":"EARTH","COUNTRY_CODE":"US","TLE_LINE2":"2 49735  53.2184  43.1363 0002271  36.8255 323.2893 15.08840975 57698","RA_OF_ASC_NODE":"43.1363","PERIOD":"95.437","OBJECT_TYPE":"PAYLOAD","EPOCH":"2022-12-18T15:10:28.812288","MEAN_ANOMALY":"323.2893","EPHEMERIS_TYPE":"0","BSTAR":"-0.00003929300000","SITE":"AFETR","SEMIMAJOR_AXIS":"6917.877","FILE":"3709623","RCS_SIZE":"LARGE","MEAN_MOTION_DOT":"-0.00000914","NORAD_CAT_ID":"49735","LAUNCH_DATE":"2021-12-02","ECCENTRICITY":"0.00022710","MEAN_ELEMENT_THEORY":"SGP4","REV_AT_EPOCH":"5769","INCLINATION":"53.2184","APOAPSIS":"541.313","MEAN_MOTION":"15.08840975","REF_FRAME":"TEME","TLE_LINE1":"1 49735U 21115M   22352.63227792 -.00000914  00000-0 -39293-4 0  9996"},{"OBJECT_TYPE":"PAYLOAD","EPOCH":"2022-12-18T20:29:45.825504","MEAN_ANOMALY":"329.1820","PERIOD":"95.438","SITE":"AFETR","SEMIMAJOR_AXIS":"6917.891","FILE":"3709623","RCS_SIZE":"LARGE","MEAN_MOTION_DOT":"0.00000191","BSTAR":"0.00003010400000","EPHEMERIS_TYPE":"0","REV_AT_EPOCH":"5787","NORAD_CAT_ID":"49736","ECCENTRICITY":"0.00025840","LAUNCH_DATE":"2021-12-02","MEAN_ELEMENT_THEORY":"SGP4","REF_FRAME":"TEME","TLE_LINE1":"1 49736U 21115N   22352.85400261  .00000191  00000-0  30104-4 0  9992","INCLINATION":"53.2168","APOAPSIS":"541.543","MEAN_MOTION":"15.08836630","OBJECT_NAME":"STARLINK-3148","GP_ID":"220870581","DECAY_DATE":null,"ARG_OF_PERICENTER":"30.9324","CLASSIFICATION_TYPE":"U","MEAN_MOTION_DDOT":"0.0000000000000","OBJECT_ID":"2021-115N","TIME_SYSTEM":"UTC","RA_OF_ASC_NODE":"32.1486","PERIAPSIS":"537.968","ELEMENT_SET_NO":"999","CENTER_NAME":"EARTH","COUNTRY_CODE":"US","TLE_LINE2":"2 49736  53.2168  32.1486 0002584  30.9324 329.1820 15.08836630 57872"},{"DECAY_DATE":null,"GP_ID":"220869332","OBJECT_NAME":"STARLINK-3225","OBJECT_ID":"2021-115P","TIME_SYSTEM":"UTC","ARG_OF_PERICENTER":"46.4534","MEAN_MOTION_DDOT":"0.0000000000000","CLASSIFICATION_TYPE":"U","ELEMENT_SET_NO":"999","PERIAPSIS":"538.159","CENTER_NAME":"EARTH","COUNTRY_CODE":"US","TLE_LINE2":"2 49737  53.2163  32.1638 0002286  46.4534 313.6648 15.08841499 57876","RA_OF_ASC_NODE":"32.1638","PERIOD":"95.437","OBJECT_TYPE":"PAYLOAD","EPOCH":"2022-12-18T20:24:29.005344","MEAN_ANOMALY":"313.6648","BSTAR":"0.00019787000000","EPHEMERIS_TYPE":"0","SITE":"AFETR","SEMIMAJOR_AXIS":"6917.876","FILE":"3709623","RCS_SIZE":"LARGE","MEAN_MOTION_DOT":"0.00002862","NORAD_CAT_ID":"49737","ECCENTRICITY":"0.00022860","LAUNCH_DATE":"2021-12-02","MEAN_ELEMENT_THEORY":"SGP4","REV_AT_EPOCH":"5787","INCLINATION":"53.2163","APOAPSIS":"541.322","MEAN_MOTION":"15.08841499","REF_FRAME":"TEME","TLE_LINE1":"1 49737U 21115P   22352.85033571  .00002862  00000-0  19787-3 0  9999"}];
